{
"type": "FeatureCollection",
"name": "poi_raw",
"crs": { "type": "name", "properties": { "name": "urn:ogc:def:crs:EPSG::2154" } },
"features": [
{ "type": "Feature", "properties": { "VALUE": 1.0 }, "geometry": { "type": "Point", "coordinates": [ 1037858.5, 6869610.5 ] } },
{ "type": "Feature", "properties": { "VALUE": 1.0 }, "geometry": { "type": "Point", "coordinates": [ 1037863.5, 6869610.5 ] } },
{ "type": "Feature", "properties": { "VALUE": 1.0 }, "geometry": { "type": "Point", "coordinates": [ 1037868.5, 6869610.5 ] } },
{ "type": "Feature", "properties": { "VALUE": 1.0 }, "geometry": { "type": "Point", "coordinates": [ 1037873.5, 6869610.5 ] } },
{ "type": "Feature", "properties": { "VALUE": 1.0 }, "geometry": { "type": "Point", "coordinates": [ 1037878.5, 6869610.5 ] } },
{ "type": "Feature", "properties": { "VALUE": 1.0 }, "geometry": { "type": "Point", "coordinates": [ 1037883.5, 6869610.5 ] } },
{ "type": "Feature", "properties": { "VALUE": 1.0 }, "geometry": { "type": "Point", "coordinates": [ 1037888.5, 6869610.5 ] } },
{ "type": "Feature", "properties": { "VALUE": 1.0 }, "geometry": { "type": "Point", "coordinates": [ 1037893.5, 6869610.5 ] } },
{ "type": "Feature", "properties": { "VALUE": 1.0 }, "geometry": { "type": "Point", "coordinates": [ 1037898.5, 6869610.5 ] } },
{ "type": "Feature", "properties": { "VALUE": 1.0 }, "geometry": { "type": "Point", "coordinates": [ 1037903.5, 6869610.5 ] } },
{ "type": "Feature", "properties": { "VALUE": 1.0 }, "geometry": { "type": "Point", "coordinates": [ 1037908.5, 6869610.5 ] } },
{ "type": "Feature", "properties": { "VALUE": 1.0 }, "geometry": { "type": "Point", "coordinates": [ 1037913.5, 6869610.5 ] } },
{ "type": "Feature", "properties": { "VALUE": 1.0 }, "geometry": { "type": "Point", "coordinates": [ 1037918.5, 6869610.5 ] } },
{ "type": "Feature", "properties": { "VALUE": 1.0 }, "geometry": { "type": "Point", "coordinates": [ 1037923.5, 6869610.5 ] } },
{ "type": "Feature", "properties": { "VALUE": 1.0 }, "geometry": { "type": "Point", "coordinates": [ 1037928.5, 6869610.5 ] } },
{ "type": "Feature", "properties": { "VALUE": 1.0 }, "geometry": { "type": "Point", "coordinates": [ 1037933.5, 6869610.5 ] } },
{ "type": "Feature", "properties": { "VALUE": 1.0 }, "geometry": { "type": "Point", "coordinates": [ 1037938.5, 6869610.5 ] } },
{ "type": "Feature", "properties": { "VALUE": 1.0 }, "geometry": { "type": "Point", "coordinates": [ 1037943.5, 6869610.5 ] } },
{ "type": "Feature", "properties": { "VALUE": 1.0 }, "geometry": { "type": "Point", "coordinates": [ 1037948.5, 6869610.5 ] } },
{ "type": "Feature", "properties": { "VALUE": 1.0 }, "geometry": { "type": "Point", "coordinates": [ 1037953.5, 6869610.5 ] } },
{ "type": "Feature", "properties": { "VALUE": 1.0 }, "geometry": { "type": "Point", "coordinates": [ 1037958.5, 6869610.5 ] } },
{ "type": "Feature", "properties": { "VALUE": 1.0 }, "geometry": { "type": "Point", "coordinates": [ 1037963.5, 6869610.5 ] } },
{ "type": "Feature", "properties": { "VALUE": 1.0 }, "geometry": { "type": "Point", "coordinates": [ 1037968.5, 6869610.5 ] } },
{ "type": "Feature", "properties": { "VALUE": 1.0 }, "geometry": { "type": "Point", "coordinates": [ 1037973.5, 6869610.5 ] } },
{ "type": "Feature", "properties": { "VALUE": 1.0 }, "geometry": { "type": "Point", "coordinates": [ 1037978.5, 6869610.5 ] } },
{ "type": "Feature", "properties": { "VALUE": 1.0 }, "geometry": { "type": "Point", "coordinates": [ 1037983.5, 6869610.5 ] } },
{ "type": "Feature", "properties": { "VALUE": 1.0 }, "geometry": { "type": "Point", "coordinates": [ 1037988.5, 6869610.5 ] } },
{ "type": "Feature", "properties": { "VALUE": 1.0 }, "geometry": { "type": "Point", "coordinates": [ 1037993.5, 6869610.5 ] } },
{ "type": "Feature", "properties": { "VALUE": 1.0 }, "geometry": { "type": "Point", "coordinates": [ 1037998.5, 6869610.5 ] } },
{ "type": "Feature", "properties": { "VALUE": 1.0 }, "geometry": { "type": "Point", "coordinates": [ 1038003.5, 6869610.5 ] } },
{ "type": "Feature", "properties": { "VALUE": 1.0 }, "geometry": { "type": "Point", "coordinates": [ 1038008.5, 6869610.5 ] } },
{ "type": "Feature", "properties": { "VALUE": 1.0 }, "geometry": { "type": "Point", "coordinates": [ 1038013.5, 6869610.5 ] } },
{ "type": "Feature", "properties": { "VALUE": 1.0 }, "geometry": { "type": "Point", "coordinates": [ 1038018.5, 6869610.5 ] } },
{ "type": "Feature", "properties": { "VALUE": 1.0 }, "geometry": { "type": "Point", "coordinates": [ 1038023.5, 6869610.5 ] } },
{ "type": "Feature", "properties": { "VALUE": 1.0 }, "geometry": { "type": "Point", "coordinates": [ 1038028.5, 6869610.5 ] } },
{ "type": "Feature", "properties": { "VALUE": 1.0 }, "geometry": { "type": "Point", "coordinates": [ 1038033.5, 6869610.5 ] } },
{ "type": "Feature", "properties": { "VALUE": 1.0 }, "geometry": { "type": "Point", "coordinates": [ 1038038.5, 6869610.5 ] } },
{ "type": "Feature", "properties": { "VALUE": 1.0 }, "geometry": { "type": "Point", "coordinates": [ 1038043.5, 6869610.5 ] } },
{ "type": "Feature", "properties": { "VALUE": 1.0 }, "geometry": { "type": "Point", "coordinates": [ 1038048.5, 6869610.5 ] } },
{ "type": "Feature", "properties": { "VALUE": 1.0 }, "geometry": { "type": "Point", "coordinates": [ 1038053.5, 6869610.5 ] } },
{ "type": "Feature", "properties": { "VALUE": 1.0 }, "geometry": { "type": "Point", "coordinates": [ 1038058.5, 6869610.5 ] } },
{ "type": "Feature", "properties": { "VALUE": 1.0 }, "geometry": { "type": "Point", "coordinates": [ 1038063.5, 6869610.5 ] } },
{ "type": "Feature", "properties": { "VALUE": 1.0 }, "geometry": { "type": "Point", "coordinates": [ 1038068.5, 6869610.5 ] } },
{ "type": "Feature", "properties": { "VALUE": 1.0 }, "geometry": { "type": "Point", "coordinates": [ 1038073.5, 6869610.5 ] } },
{ "type": "Feature", "properties": { "VALUE": 1.0 }, "geometry": { "type": "Point", "coordinates": [ 1038078.5, 6869610.5 ] } },
{ "type": "Feature", "properties": { "VALUE": 1.0 }, "geometry": { "type": "Point", "coordinates": [ 1038083.5, 6869610.5 ] } },
{ "type": "Feature", "properties": { "VALUE": 1.0 }, "geometry": { "type": "Point", "coordinates": [ 1038088.5, 6869610.5 ] } },
{ "type": "Feature", "properties": { "VALUE": 1.0 }, "geometry": { "type": "Point", "coordinates": [ 1038093.5, 6869610.5 ] } },
{ "type": "Feature", "properties": { "VALUE": 1.0 }, "geometry": { "type": "Point", "coordinates": [ 1038098.5, 6869610.5 ] } },
{ "type": "Feature", "properties": { "VALUE": 1.0 }, "geometry": { "type": "Point", "coordinates": [ 1038103.5, 6869610.5 ] } },
{ "type": "Feature", "properties": { "VALUE": 1.0 }, "geometry": { "type": "Point", "coordinates": [ 1038108.5, 6869610.5 ] } },
{ "type": "Feature", "properties": { "VALUE": 1.0 }, "geometry": { "type": "Point", "coordinates": [ 1038113.5, 6869610.5 ] } },
{ "type": "Feature", "properties": { "VALUE": 1.0 }, "geometry": { "type": "Point", "coordinates": [ 1038118.5, 6869610.5 ] } },
{ "type": "Feature", "properties": { "VALUE": 1.0 }, "geometry": { "type": "Point", "coordinates": [ 1038123.5, 6869610.5 ] } },
{ "type": "Feature", "properties": { "VALUE": 1.0 }, "geometry": { "type": "Point", "coordinates": [ 1038128.5, 6869610.5 ] } },
{ "type": "Feature", "properties": { "VALUE": 1.0 }, "geometry": { "type": "Point", "coordinates": [ 1038133.5, 6869610.5 ] } },
{ "type": "Feature", "properties": { "VALUE": 1.0 }, "geometry": { "type": "Point", "coordinates": [ 1038138.5, 6869610.5 ] } },
{ "type": "Feature", "properties": { "VALUE": 1.0 }, "geometry": { "type": "Point", "coordinates": [ 1038143.5, 6869610.5 ] } },
{ "type": "Feature", "properties": { "VALUE": 1.0 }, "geometry": { "type": "Point", "coordinates": [ 1038148.5, 6869610.5 ] } },
{ "type": "Feature", "properties": { "VALUE": 1.0 }, "geometry": { "type": "Point", "coordinates": [ 1038153.5, 6869610.5 ] } },
{ "type": "Feature", "properties": { "VALUE": 1.0 }, "geometry": { "type": "Point", "coordinates": [ 1038158.5, 6869610.5 ] } },
{ "type": "Feature", "properties": { "VALUE": 1.0 }, "geometry": { "type": "Point", "coordinates": [ 1038163.5, 6869610.5 ] } },
{ "type": "Feature", "properties": { "VALUE": 1.0 }, "geometry": { "type": "Point", "coordinates": [ 1038168.5, 6869610.5 ] } },
{ "type": "Feature", "properties": { "VALUE": 1.0 }, "geometry": { "type": "Point", "coordinates": [ 1038173.5, 6869610.5 ] } },
{ "type": "Feature", "properties": { "VALUE": 1.0 }, "geometry": { "type": "Point", "coordinates": [ 1038178.5, 6869610.5 ] } },
{ "type": "Feature", "properties": { "VALUE": 1.0 }, "geometry": { "type": "Point", "coordinates": [ 1038183.5, 6869610.5 ] } },
{ "type": "Feature", "properties": { "VALUE": 1.0 }, "geometry": { "type": "Point", "coordinates": [ 1038188.5, 6869610.5 ] } },
{ "type": "Feature", "properties": { "VALUE": 1.0 }, "geometry": { "type": "Point", "coordinates": [ 1038193.5, 6869610.5 ] } },
{ "type": "Feature", "properties": { "VALUE": 1.0 }, "geometry": { "type": "Point", "coordinates": [ 1038198.5, 6869610.5 ] } },
{ "type": "Feature", "properties": { "VALUE": 1.0 }, "geometry": { "type": "Point", "coordinates": [ 1038203.5, 6869610.5 ] } },
{ "type": "Feature", "properties": { "VALUE": 1.0 }, "geometry": { "type": "Point", "coordinates": [ 1038208.5, 6869610.5 ] } },
{ "type": "Feature", "properties": { "VALUE": 1.0 }, "geometry": { "type": "Point", "coordinates": [ 1038213.5, 6869610.5 ] } },
{ "type": "Feature", "properties": { "VALUE": 1.0 }, "geometry": { "type": "Point", "coordinates": [ 1038218.5, 6869610.5 ] } },
{ "type": "Feature", "properties": { "VALUE": 1.0 }, "geometry": { "type": "Point", "coordinates": [ 1038223.5, 6869610.5 ] } },
{ "type": "Feature", "properties": { "VALUE": 1.0 }, "geometry": { "type": "Point", "coordinates": [ 1038228.5, 6869610.5 ] } },
{ "type": "Feature", "properties": { "VALUE": 1.0 }, "geometry": { "type": "Point", "coordinates": [ 1038233.5, 6869610.5 ] } },
{ "type": "Feature", "properties": { "VALUE": 1.0 }, "geometry": { "type": "Point", "coordinates": [ 1038238.5, 6869610.5 ] } },
{ "type": "Feature", "properties": { "VALUE": 1.0 }, "geometry": { "type": "Point", "coordinates": [ 1038243.5, 6869610.5 ] } },
{ "type": "Feature", "properties": { "VALUE": 1.0 }, "geometry": { "type": "Point", "coordinates": [ 1038248.5, 6869610.5 ] } },
{ "type": "Feature", "properties": { "VALUE": 1.0 }, "geometry": { "type": "Point", "coordinates": [ 1038253.5, 6869610.5 ] } },
{ "type": "Feature", "properties": { "VALUE": 1.0 }, "geometry": { "type": "Point", "coordinates": [ 1038258.5, 6869610.5 ] } },
{ "type": "Feature", "properties": { "VALUE": 1.0 }, "geometry": { "type": "Point", "coordinates": [ 1038263.5, 6869610.5 ] } },
{ "type": "Feature", "properties": { "VALUE": 1.0 }, "geometry": { "type": "Point", "coordinates": [ 1038268.5, 6869610.5 ] } },
{ "type": "Feature", "properties": { "VALUE": 1.0 }, "geometry": { "type": "Point", "coordinates": [ 1038273.5, 6869610.5 ] } },
{ "type": "Feature", "properties": { "VALUE": 1.0 }, "geometry": { "type": "Point", "coordinates": [ 1038278.5, 6869610.5 ] } },
{ "type": "Feature", "properties": { "VALUE": 1.0 }, "geometry": { "type": "Point", "coordinates": [ 1038283.5, 6869610.5 ] } },
{ "type": "Feature", "properties": { "VALUE": 1.0 }, "geometry": { "type": "Point", "coordinates": [ 1038288.5, 6869610.5 ] } },
{ "type": "Feature", "properties": { "VALUE": 1.0 }, "geometry": { "type": "Point", "coordinates": [ 1038293.5, 6869610.5 ] } },
{ "type": "Feature", "properties": { "VALUE": 1.0 }, "geometry": { "type": "Point", "coordinates": [ 1038298.5, 6869610.5 ] } },
{ "type": "Feature", "properties": { "VALUE": 1.0 }, "geometry": { "type": "Point", "coordinates": [ 1038303.5, 6869610.5 ] } },
{ "type": "Feature", "properties": { "VALUE": 1.0 }, "geometry": { "type": "Point", "coordinates": [ 1038308.5, 6869610.5 ] } },
{ "type": "Feature", "properties": { "VALUE": 1.0 }, "geometry": { "type": "Point", "coordinates": [ 1038313.5, 6869610.5 ] } },
{ "type": "Feature", "properties": { "VALUE": 1.0 }, "geometry": { "type": "Point", "coordinates": [ 1038318.5, 6869610.5 ] } },
{ "type": "Feature", "properties": { "VALUE": 1.0 }, "geometry": { "type": "Point", "coordinates": [ 1038323.5, 6869610.5 ] } },
{ "type": "Feature", "properties": { "VALUE": 1.0 }, "geometry": { "type": "Point", "coordinates": [ 1038328.5, 6869610.5 ] } },
{ "type": "Feature", "properties": { "VALUE": 1.0 }, "geometry": { "type": "Point", "coordinates": [ 1038333.5, 6869610.5 ] } },
{ "type": "Feature", "properties": { "VALUE": 1.0 }, "geometry": { "type": "Point", "coordinates": [ 1038338.5, 6869610.5 ] } },
{ "type": "Feature", "properties": { "VALUE": 1.0 }, "geometry": { "type": "Point", "coordinates": [ 1038343.5, 6869610.5 ] } },
{ "type": "Feature", "properties": { "VALUE": 1.0 }, "geometry": { "type": "Point", "coordinates": [ 1038348.5, 6869610.5 ] } },
{ "type": "Feature", "properties": { "VALUE": 1.0 }, "geometry": { "type": "Point", "coordinates": [ 1038353.5, 6869610.5 ] } },
{ "type": "Feature", "properties": { "VALUE": 1.0 }, "geometry": { "type": "Point", "coordinates": [ 1038358.5, 6869610.5 ] } },
{ "type": "Feature", "properties": { "VALUE": 1.0 }, "geometry": { "type": "Point", "coordinates": [ 1038363.5, 6869610.5 ] } },
{ "type": "Feature", "properties": { "VALUE": 1.0 }, "geometry": { "type": "Point", "coordinates": [ 1038368.5, 6869610.5 ] } },
{ "type": "Feature", "properties": { "VALUE": 1.0 }, "geometry": { "type": "Point", "coordinates": [ 1038373.5, 6869610.5 ] } },
{ "type": "Feature", "properties": { "VALUE": 1.0 }, "geometry": { "type": "Point", "coordinates": [ 1038378.5, 6869610.5 ] } },
{ "type": "Feature", "properties": { "VALUE": 1.0 }, "geometry": { "type": "Point", "coordinates": [ 1038383.5, 6869610.5 ] } },
{ "type": "Feature", "properties": { "VALUE": 1.0 }, "geometry": { "type": "Point", "coordinates": [ 1038388.5, 6869610.5 ] } },
{ "type": "Feature", "properties": { "VALUE": 1.0 }, "geometry": { "type": "Point", "coordinates": [ 1038393.5, 6869610.5 ] } },
{ "type": "Feature", "properties": { "VALUE": 1.0 }, "geometry": { "type": "Point", "coordinates": [ 1038398.5, 6869610.5 ] } },
{ "type": "Feature", "properties": { "VALUE": 1.0 }, "geometry": { "type": "Point", "coordinates": [ 1038403.5, 6869610.5 ] } },
{ "type": "Feature", "properties": { "VALUE": 1.0 }, "geometry": { "type": "Point", "coordinates": [ 1038408.5, 6869610.5 ] } },
{ "type": "Feature", "properties": { "VALUE": 1.0 }, "geometry": { "type": "Point", "coordinates": [ 1038413.5, 6869610.5 ] } },
{ "type": "Feature", "properties": { "VALUE": 1.0 }, "geometry": { "type": "Point", "coordinates": [ 1038418.5, 6869610.5 ] } },
{ "type": "Feature", "properties": { "VALUE": 1.0 }, "geometry": { "type": "Point", "coordinates": [ 1038423.5, 6869610.5 ] } },
{ "type": "Feature", "properties": { "VALUE": 1.0 }, "geometry": { "type": "Point", "coordinates": [ 1038428.5, 6869610.5 ] } },
{ "type": "Feature", "properties": { "VALUE": 1.0 }, "geometry": { "type": "Point", "coordinates": [ 1038433.5, 6869610.5 ] } },
{ "type": "Feature", "properties": { "VALUE": 1.0 }, "geometry": { "type": "Point", "coordinates": [ 1038438.5, 6869610.5 ] } },
{ "type": "Feature", "properties": { "VALUE": 1.0 }, "geometry": { "type": "Point", "coordinates": [ 1038443.5, 6869610.5 ] } },
{ "type": "Feature", "properties": { "VALUE": 1.0 }, "geometry": { "type": "Point", "coordinates": [ 1038448.5, 6869610.5 ] } },
{ "type": "Feature", "properties": { "VALUE": 1.0 }, "geometry": { "type": "Point", "coordinates": [ 1038453.5, 6869610.5 ] } },
{ "type": "Feature", "properties": { "VALUE": 1.0 }, "geometry": { "type": "Point", "coordinates": [ 1038458.5, 6869610.5 ] } },
{ "type": "Feature", "properties": { "VALUE": 1.0 }, "geometry": { "type": "Point", "coordinates": [ 1038463.5, 6869610.5 ] } },
{ "type": "Feature", "properties": { "VALUE": 1.0 }, "geometry": { "type": "Point", "coordinates": [ 1038468.5, 6869610.5 ] } },
{ "type": "Feature", "properties": { "VALUE": 1.0 }, "geometry": { "type": "Point", "coordinates": [ 1038473.5, 6869610.5 ] } },
{ "type": "Feature", "properties": { "VALUE": 1.0 }, "geometry": { "type": "Point", "coordinates": [ 1038478.5, 6869610.5 ] } },
{ "type": "Feature", "properties": { "VALUE": 1.0 }, "geometry": { "type": "Point", "coordinates": [ 1038483.5, 6869610.5 ] } },
{ "type": "Feature", "properties": { "VALUE": 1.0 }, "geometry": { "type": "Point", "coordinates": [ 1038488.5, 6869610.5 ] } },
{ "type": "Feature", "properties": { "VALUE": 1.0 }, "geometry": { "type": "Point", "coordinates": [ 1038493.5, 6869610.5 ] } },
{ "type": "Feature", "properties": { "VALUE": 1.0 }, "geometry": { "type": "Point", "coordinates": [ 1038498.5, 6869610.5 ] } },
{ "type": "Feature", "properties": { "VALUE": 1.0 }, "geometry": { "type": "Point", "coordinates": [ 1038503.5, 6869610.5 ] } },
{ "type": "Feature", "properties": { "VALUE": 1.0 }, "geometry": { "type": "Point", "coordinates": [ 1038508.5, 6869610.5 ] } },
{ "type": "Feature", "properties": { "VALUE": 1.0 }, "geometry": { "type": "Point", "coordinates": [ 1038513.5, 6869610.5 ] } },
{ "type": "Feature", "properties": { "VALUE": 1.0 }, "geometry": { "type": "Point", "coordinates": [ 1038518.5, 6869610.5 ] } },
{ "type": "Feature", "properties": { "VALUE": 1.0 }, "geometry": { "type": "Point", "coordinates": [ 1038523.5, 6869610.5 ] } },
{ "type": "Feature", "properties": { "VALUE": 1.0 }, "geometry": { "type": "Point", "coordinates": [ 1038528.5, 6869610.5 ] } },
{ "type": "Feature", "properties": { "VALUE": 1.0 }, "geometry": { "type": "Point", "coordinates": [ 1038533.5, 6869610.5 ] } },
{ "type": "Feature", "properties": { "VALUE": 1.0 }, "geometry": { "type": "Point", "coordinates": [ 1038538.5, 6869610.5 ] } },
{ "type": "Feature", "properties": { "VALUE": 1.0 }, "geometry": { "type": "Point", "coordinates": [ 1038543.5, 6869610.5 ] } },
{ "type": "Feature", "properties": { "VALUE": 1.0 }, "geometry": { "type": "Point", "coordinates": [ 1038548.5, 6869610.5 ] } },
{ "type": "Feature", "properties": { "VALUE": 1.0 }, "geometry": { "type": "Point", "coordinates": [ 1038553.5, 6869610.5 ] } },
{ "type": "Feature", "properties": { "VALUE": 1.0 }, "geometry": { "type": "Point", "coordinates": [ 1038558.5, 6869610.5 ] } },
{ "type": "Feature", "properties": { "VALUE": 1.0 }, "geometry": { "type": "Point", "coordinates": [ 1038563.5, 6869610.5 ] } },
{ "type": "Feature", "properties": { "VALUE": 1.0 }, "geometry": { "type": "Point", "coordinates": [ 1038568.5, 6869610.5 ] } },
{ "type": "Feature", "properties": { "VALUE": 1.0 }, "geometry": { "type": "Point", "coordinates": [ 1038573.5, 6869610.5 ] } },
{ "type": "Feature", "properties": { "VALUE": 1.0 }, "geometry": { "type": "Point", "coordinates": [ 1038578.5, 6869610.5 ] } },
{ "type": "Feature", "properties": { "VALUE": 1.0 }, "geometry": { "type": "Point", "coordinates": [ 1038583.5, 6869610.5 ] } },
{ "type": "Feature", "properties": { "VALUE": 1.0 }, "geometry": { "type": "Point", "coordinates": [ 1038588.5, 6869610.5 ] } },
{ "type": "Feature", "properties": { "VALUE": 1.0 }, "geometry": { "type": "Point", "coordinates": [ 1038593.5, 6869610.5 ] } },
{ "type": "Feature", "properties": { "VALUE": 1.0 }, "geometry": { "type": "Point", "coordinates": [ 1038598.5, 6869610.5 ] } },
{ "type": "Feature", "properties": { "VALUE": 1.0 }, "geometry": { "type": "Point", "coordinates": [ 1038603.5, 6869610.5 ] } },
{ "type": "Feature", "properties": { "VALUE": 1.0 }, "geometry": { "type": "Point", "coordinates": [ 1038608.5, 6869610.5 ] } },
{ "type": "Feature", "properties": { "VALUE": 1.0 }, "geometry": { "type": "Point", "coordinates": [ 1038613.5, 6869610.5 ] } },
{ "type": "Feature", "properties": { "VALUE": 1.0 }, "geometry": { "type": "Point", "coordinates": [ 1038618.5, 6869610.5 ] } },
{ "type": "Feature", "properties": { "VALUE": 1.0 }, "geometry": { "type": "Point", "coordinates": [ 1038623.5, 6869610.5 ] } },
{ "type": "Feature", "properties": { "VALUE": 1.0 }, "geometry": { "type": "Point", "coordinates": [ 1038628.5, 6869610.5 ] } },
{ "type": "Feature", "properties": { "VALUE": 1.0 }, "geometry": { "type": "Point", "coordinates": [ 1038633.5, 6869610.5 ] } },
{ "type": "Feature", "properties": { "VALUE": 1.0 }, "geometry": { "type": "Point", "coordinates": [ 1038638.5, 6869610.5 ] } },
{ "type": "Feature", "properties": { "VALUE": 1.0 }, "geometry": { "type": "Point", "coordinates": [ 1038643.5, 6869610.5 ] } },
{ "type": "Feature", "properties": { "VALUE": 1.0 }, "geometry": { "type": "Point", "coordinates": [ 1038648.5, 6869610.5 ] } },
{ "type": "Feature", "properties": { "VALUE": 1.0 }, "geometry": { "type": "Point", "coordinates": [ 1038653.5, 6869610.5 ] } },
{ "type": "Feature", "properties": { "VALUE": 1.0 }, "geometry": { "type": "Point", "coordinates": [ 1038658.5, 6869610.5 ] } },
{ "type": "Feature", "properties": { "VALUE": 1.0 }, "geometry": { "type": "Point", "coordinates": [ 1038663.5, 6869610.5 ] } },
{ "type": "Feature", "properties": { "VALUE": 1.0 }, "geometry": { "type": "Point", "coordinates": [ 1038668.5, 6869610.5 ] } },
{ "type": "Feature", "properties": { "VALUE": 1.0 }, "geometry": { "type": "Point", "coordinates": [ 1038673.5, 6869610.5 ] } },
{ "type": "Feature", "properties": { "VALUE": 1.0 }, "geometry": { "type": "Point", "coordinates": [ 1038678.5, 6869610.5 ] } },
{ "type": "Feature", "properties": { "VALUE": 1.0 }, "geometry": { "type": "Point", "coordinates": [ 1038683.5, 6869610.5 ] } },
{ "type": "Feature", "properties": { "VALUE": 1.0 }, "geometry": { "type": "Point", "coordinates": [ 1038688.5, 6869610.5 ] } },
{ "type": "Feature", "properties": { "VALUE": 1.0 }, "geometry": { "type": "Point", "coordinates": [ 1038693.5, 6869610.5 ] } },
{ "type": "Feature", "properties": { "VALUE": 1.0 }, "geometry": { "type": "Point", "coordinates": [ 1038698.5, 6869610.5 ] } },
{ "type": "Feature", "properties": { "VALUE": 1.0 }, "geometry": { "type": "Point", "coordinates": [ 1038703.5, 6869610.5 ] } },
{ "type": "Feature", "properties": { "VALUE": 1.0 }, "geometry": { "type": "Point", "coordinates": [ 1038708.5, 6869610.5 ] } },
{ "type": "Feature", "properties": { "VALUE": 1.0 }, "geometry": { "type": "Point", "coordinates": [ 1038713.5, 6869610.5 ] } },
{ "type": "Feature", "properties": { "VALUE": 1.0 }, "geometry": { "type": "Point", "coordinates": [ 1038718.5, 6869610.5 ] } },
{ "type": "Feature", "properties": { "VALUE": 1.0 }, "geometry": { "type": "Point", "coordinates": [ 1038723.5, 6869610.5 ] } },
{ "type": "Feature", "properties": { "VALUE": 1.0 }, "geometry": { "type": "Point", "coordinates": [ 1038728.5, 6869610.5 ] } },
{ "type": "Feature", "properties": { "VALUE": 1.0 }, "geometry": { "type": "Point", "coordinates": [ 1038733.5, 6869610.5 ] } },
{ "type": "Feature", "properties": { "VALUE": 1.0 }, "geometry": { "type": "Point", "coordinates": [ 1038738.5, 6869610.5 ] } },
{ "type": "Feature", "properties": { "VALUE": 1.0 }, "geometry": { "type": "Point", "coordinates": [ 1038743.5, 6869610.5 ] } },
{ "type": "Feature", "properties": { "VALUE": 1.0 }, "geometry": { "type": "Point", "coordinates": [ 1038748.5, 6869610.5 ] } },
{ "type": "Feature", "properties": { "VALUE": 1.0 }, "geometry": { "type": "Point", "coordinates": [ 1038753.5, 6869610.5 ] } },
{ "type": "Feature", "properties": { "VALUE": 1.0 }, "geometry": { "type": "Point", "coordinates": [ 1038758.5, 6869610.5 ] } },
{ "type": "Feature", "properties": { "VALUE": 1.0 }, "geometry": { "type": "Point", "coordinates": [ 1038763.5, 6869610.5 ] } },
{ "type": "Feature", "properties": { "VALUE": 1.0 }, "geometry": { "type": "Point", "coordinates": [ 1038768.5, 6869610.5 ] } },
{ "type": "Feature", "properties": { "VALUE": 1.0 }, "geometry": { "type": "Point", "coordinates": [ 1038773.5, 6869610.5 ] } },
{ "type": "Feature", "properties": { "VALUE": 1.0 }, "geometry": { "type": "Point", "coordinates": [ 1038778.5, 6869610.5 ] } },
{ "type": "Feature", "properties": { "VALUE": 1.0 }, "geometry": { "type": "Point", "coordinates": [ 1038783.5, 6869610.5 ] } },
{ "type": "Feature", "properties": { "VALUE": 1.0 }, "geometry": { "type": "Point", "coordinates": [ 1038788.5, 6869610.5 ] } },
{ "type": "Feature", "properties": { "VALUE": 1.0 }, "geometry": { "type": "Point", "coordinates": [ 1038793.5, 6869610.5 ] } },
{ "type": "Feature", "properties": { "VALUE": 1.0 }, "geometry": { "type": "Point", "coordinates": [ 1038798.5, 6869610.5 ] } },
{ "type": "Feature", "properties": { "VALUE": 1.0 }, "geometry": { "type": "Point", "coordinates": [ 1038803.5, 6869610.5 ] } },
{ "type": "Feature", "properties": { "VALUE": 1.0 }, "geometry": { "type": "Point", "coordinates": [ 1038808.5, 6869610.5 ] } },
{ "type": "Feature", "properties": { "VALUE": 1.0 }, "geometry": { "type": "Point", "coordinates": [ 1038813.5, 6869610.5 ] } },
{ "type": "Feature", "properties": { "VALUE": 1.0 }, "geometry": { "type": "Point", "coordinates": [ 1038818.5, 6869610.5 ] } },
{ "type": "Feature", "properties": { "VALUE": 1.0 }, "geometry": { "type": "Point", "coordinates": [ 1038823.5, 6869610.5 ] } },
{ "type": "Feature", "properties": { "VALUE": 1.0 }, "geometry": { "type": "Point", "coordinates": [ 1038828.5, 6869610.5 ] } },
{ "type": "Feature", "properties": { "VALUE": 1.0 }, "geometry": { "type": "Point", "coordinates": [ 1038833.5, 6869610.5 ] } },
{ "type": "Feature", "properties": { "VALUE": 1.0 }, "geometry": { "type": "Point", "coordinates": [ 1038838.5, 6869610.5 ] } },
{ "type": "Feature", "properties": { "VALUE": 1.0 }, "geometry": { "type": "Point", "coordinates": [ 1038843.5, 6869610.5 ] } },
{ "type": "Feature", "properties": { "VALUE": 1.0 }, "geometry": { "type": "Point", "coordinates": [ 1038848.5, 6869610.5 ] } },
{ "type": "Feature", "properties": { "VALUE": 1.0 }, "geometry": { "type": "Point", "coordinates": [ 1038853.5, 6869610.5 ] } },
{ "type": "Feature", "properties": { "VALUE": 1.0 }, "geometry": { "type": "Point", "coordinates": [ 1037858.5, 6869605.5 ] } },
{ "type": "Feature", "properties": { "VALUE": 1.0 }, "geometry": { "type": "Point", "coordinates": [ 1037863.5, 6869605.5 ] } },
{ "type": "Feature", "properties": { "VALUE": 1.0 }, "geometry": { "type": "Point", "coordinates": [ 1037868.5, 6869605.5 ] } },
{ "type": "Feature", "properties": { "VALUE": 1.0 }, "geometry": { "type": "Point", "coordinates": [ 1037873.5, 6869605.5 ] } },
{ "type": "Feature", "properties": { "VALUE": 1.0 }, "geometry": { "type": "Point", "coordinates": [ 1037878.5, 6869605.5 ] } },
{ "type": "Feature", "properties": { "VALUE": 1.0 }, "geometry": { "type": "Point", "coordinates": [ 1037883.5, 6869605.5 ] } },
{ "type": "Feature", "properties": { "VALUE": 1.0 }, "geometry": { "type": "Point", "coordinates": [ 1037888.5, 6869605.5 ] } },
{ "type": "Feature", "properties": { "VALUE": 1.0 }, "geometry": { "type": "Point", "coordinates": [ 1037893.5, 6869605.5 ] } },
{ "type": "Feature", "properties": { "VALUE": 1.0 }, "geometry": { "type": "Point", "coordinates": [ 1037898.5, 6869605.5 ] } },
{ "type": "Feature", "properties": { "VALUE": 1.0 }, "geometry": { "type": "Point", "coordinates": [ 1037903.5, 6869605.5 ] } },
{ "type": "Feature", "properties": { "VALUE": 1.0 }, "geometry": { "type": "Point", "coordinates": [ 1037908.5, 6869605.5 ] } },
{ "type": "Feature", "properties": { "VALUE": 1.0 }, "geometry": { "type": "Point", "coordinates": [ 1037913.5, 6869605.5 ] } },
{ "type": "Feature", "properties": { "VALUE": 1.0 }, "geometry": { "type": "Point", "coordinates": [ 1037918.5, 6869605.5 ] } },
{ "type": "Feature", "properties": { "VALUE": 1.0 }, "geometry": { "type": "Point", "coordinates": [ 1037923.5, 6869605.5 ] } },
{ "type": "Feature", "properties": { "VALUE": 1.0 }, "geometry": { "type": "Point", "coordinates": [ 1037928.5, 6869605.5 ] } },
{ "type": "Feature", "properties": { "VALUE": 1.0 }, "geometry": { "type": "Point", "coordinates": [ 1037933.5, 6869605.5 ] } },
{ "type": "Feature", "properties": { "VALUE": 1.0 }, "geometry": { "type": "Point", "coordinates": [ 1037938.5, 6869605.5 ] } },
{ "type": "Feature", "properties": { "VALUE": 1.0 }, "geometry": { "type": "Point", "coordinates": [ 1037943.5, 6869605.5 ] } },
{ "type": "Feature", "properties": { "VALUE": 1.0 }, "geometry": { "type": "Point", "coordinates": [ 1037948.5, 6869605.5 ] } },
{ "type": "Feature", "properties": { "VALUE": 1.0 }, "geometry": { "type": "Point", "coordinates": [ 1037953.5, 6869605.5 ] } },
{ "type": "Feature", "properties": { "VALUE": 1.0 }, "geometry": { "type": "Point", "coordinates": [ 1037958.5, 6869605.5 ] } },
{ "type": "Feature", "properties": { "VALUE": 1.0 }, "geometry": { "type": "Point", "coordinates": [ 1037963.5, 6869605.5 ] } },
{ "type": "Feature", "properties": { "VALUE": 1.0 }, "geometry": { "type": "Point", "coordinates": [ 1037968.5, 6869605.5 ] } },
{ "type": "Feature", "properties": { "VALUE": 1.0 }, "geometry": { "type": "Point", "coordinates": [ 1037973.5, 6869605.5 ] } },
{ "type": "Feature", "properties": { "VALUE": 1.0 }, "geometry": { "type": "Point", "coordinates": [ 1037978.5, 6869605.5 ] } },
{ "type": "Feature", "properties": { "VALUE": 1.0 }, "geometry": { "type": "Point", "coordinates": [ 1037983.5, 6869605.5 ] } },
{ "type": "Feature", "properties": { "VALUE": 1.0 }, "geometry": { "type": "Point", "coordinates": [ 1037988.5, 6869605.5 ] } },
{ "type": "Feature", "properties": { "VALUE": 1.0 }, "geometry": { "type": "Point", "coordinates": [ 1037993.5, 6869605.5 ] } },
{ "type": "Feature", "properties": { "VALUE": 1.0 }, "geometry": { "type": "Point", "coordinates": [ 1037998.5, 6869605.5 ] } },
{ "type": "Feature", "properties": { "VALUE": 1.0 }, "geometry": { "type": "Point", "coordinates": [ 1038003.5, 6869605.5 ] } },
{ "type": "Feature", "properties": { "VALUE": 1.0 }, "geometry": { "type": "Point", "coordinates": [ 1038008.5, 6869605.5 ] } },
{ "type": "Feature", "properties": { "VALUE": 1.0 }, "geometry": { "type": "Point", "coordinates": [ 1038013.5, 6869605.5 ] } },
{ "type": "Feature", "properties": { "VALUE": 1.0 }, "geometry": { "type": "Point", "coordinates": [ 1038018.5, 6869605.5 ] } },
{ "type": "Feature", "properties": { "VALUE": 1.0 }, "geometry": { "type": "Point", "coordinates": [ 1038023.5, 6869605.5 ] } },
{ "type": "Feature", "properties": { "VALUE": 1.0 }, "geometry": { "type": "Point", "coordinates": [ 1038028.5, 6869605.5 ] } },
{ "type": "Feature", "properties": { "VALUE": 1.0 }, "geometry": { "type": "Point", "coordinates": [ 1038033.5, 6869605.5 ] } },
{ "type": "Feature", "properties": { "VALUE": 1.0 }, "geometry": { "type": "Point", "coordinates": [ 1038038.5, 6869605.5 ] } },
{ "type": "Feature", "properties": { "VALUE": 1.0 }, "geometry": { "type": "Point", "coordinates": [ 1038043.5, 6869605.5 ] } },
{ "type": "Feature", "properties": { "VALUE": 1.0 }, "geometry": { "type": "Point", "coordinates": [ 1038048.5, 6869605.5 ] } },
{ "type": "Feature", "properties": { "VALUE": 1.0 }, "geometry": { "type": "Point", "coordinates": [ 1038053.5, 6869605.5 ] } },
{ "type": "Feature", "properties": { "VALUE": 1.0 }, "geometry": { "type": "Point", "coordinates": [ 1038058.5, 6869605.5 ] } },
{ "type": "Feature", "properties": { "VALUE": 1.0 }, "geometry": { "type": "Point", "coordinates": [ 1038063.5, 6869605.5 ] } },
{ "type": "Feature", "properties": { "VALUE": 1.0 }, "geometry": { "type": "Point", "coordinates": [ 1038068.5, 6869605.5 ] } },
{ "type": "Feature", "properties": { "VALUE": 1.0 }, "geometry": { "type": "Point", "coordinates": [ 1038073.5, 6869605.5 ] } },
{ "type": "Feature", "properties": { "VALUE": 1.0 }, "geometry": { "type": "Point", "coordinates": [ 1038078.5, 6869605.5 ] } },
{ "type": "Feature", "properties": { "VALUE": 1.0 }, "geometry": { "type": "Point", "coordinates": [ 1038083.5, 6869605.5 ] } },
{ "type": "Feature", "properties": { "VALUE": 1.0 }, "geometry": { "type": "Point", "coordinates": [ 1038088.5, 6869605.5 ] } },
{ "type": "Feature", "properties": { "VALUE": 1.0 }, "geometry": { "type": "Point", "coordinates": [ 1038093.5, 6869605.5 ] } },
{ "type": "Feature", "properties": { "VALUE": 1.0 }, "geometry": { "type": "Point", "coordinates": [ 1038098.5, 6869605.5 ] } },
{ "type": "Feature", "properties": { "VALUE": 1.0 }, "geometry": { "type": "Point", "coordinates": [ 1038103.5, 6869605.5 ] } },
{ "type": "Feature", "properties": { "VALUE": 1.0 }, "geometry": { "type": "Point", "coordinates": [ 1038108.5, 6869605.5 ] } },
{ "type": "Feature", "properties": { "VALUE": 1.0 }, "geometry": { "type": "Point", "coordinates": [ 1038113.5, 6869605.5 ] } },
{ "type": "Feature", "properties": { "VALUE": 1.0 }, "geometry": { "type": "Point", "coordinates": [ 1038118.5, 6869605.5 ] } },
{ "type": "Feature", "properties": { "VALUE": 1.0 }, "geometry": { "type": "Point", "coordinates": [ 1038123.5, 6869605.5 ] } },
{ "type": "Feature", "properties": { "VALUE": 1.0 }, "geometry": { "type": "Point", "coordinates": [ 1038128.5, 6869605.5 ] } },
{ "type": "Feature", "properties": { "VALUE": 1.0 }, "geometry": { "type": "Point", "coordinates": [ 1038133.5, 6869605.5 ] } },
{ "type": "Feature", "properties": { "VALUE": 1.0 }, "geometry": { "type": "Point", "coordinates": [ 1038138.5, 6869605.5 ] } },
{ "type": "Feature", "properties": { "VALUE": 1.0 }, "geometry": { "type": "Point", "coordinates": [ 1038143.5, 6869605.5 ] } },
{ "type": "Feature", "properties": { "VALUE": 1.0 }, "geometry": { "type": "Point", "coordinates": [ 1038148.5, 6869605.5 ] } },
{ "type": "Feature", "properties": { "VALUE": 1.0 }, "geometry": { "type": "Point", "coordinates": [ 1038153.5, 6869605.5 ] } },
{ "type": "Feature", "properties": { "VALUE": 1.0 }, "geometry": { "type": "Point", "coordinates": [ 1038158.5, 6869605.5 ] } },
{ "type": "Feature", "properties": { "VALUE": 1.0 }, "geometry": { "type": "Point", "coordinates": [ 1038163.5, 6869605.5 ] } },
{ "type": "Feature", "properties": { "VALUE": 1.0 }, "geometry": { "type": "Point", "coordinates": [ 1038168.5, 6869605.5 ] } },
{ "type": "Feature", "properties": { "VALUE": 1.0 }, "geometry": { "type": "Point", "coordinates": [ 1038173.5, 6869605.5 ] } },
{ "type": "Feature", "properties": { "VALUE": 1.0 }, "geometry": { "type": "Point", "coordinates": [ 1038178.5, 6869605.5 ] } },
{ "type": "Feature", "properties": { "VALUE": 1.0 }, "geometry": { "type": "Point", "coordinates": [ 1038183.5, 6869605.5 ] } },
{ "type": "Feature", "properties": { "VALUE": 1.0 }, "geometry": { "type": "Point", "coordinates": [ 1038188.5, 6869605.5 ] } },
{ "type": "Feature", "properties": { "VALUE": 1.0 }, "geometry": { "type": "Point", "coordinates": [ 1038193.5, 6869605.5 ] } },
{ "type": "Feature", "properties": { "VALUE": 1.0 }, "geometry": { "type": "Point", "coordinates": [ 1038198.5, 6869605.5 ] } },
{ "type": "Feature", "properties": { "VALUE": 1.0 }, "geometry": { "type": "Point", "coordinates": [ 1038203.5, 6869605.5 ] } },
{ "type": "Feature", "properties": { "VALUE": 1.0 }, "geometry": { "type": "Point", "coordinates": [ 1038208.5, 6869605.5 ] } },
{ "type": "Feature", "properties": { "VALUE": 1.0 }, "geometry": { "type": "Point", "coordinates": [ 1038213.5, 6869605.5 ] } },
{ "type": "Feature", "properties": { "VALUE": 1.0 }, "geometry": { "type": "Point", "coordinates": [ 1038218.5, 6869605.5 ] } },
{ "type": "Feature", "properties": { "VALUE": 1.0 }, "geometry": { "type": "Point", "coordinates": [ 1038223.5, 6869605.5 ] } },
{ "type": "Feature", "properties": { "VALUE": 1.0 }, "geometry": { "type": "Point", "coordinates": [ 1038228.5, 6869605.5 ] } },
{ "type": "Feature", "properties": { "VALUE": 1.0 }, "geometry": { "type": "Point", "coordinates": [ 1038233.5, 6869605.5 ] } },
{ "type": "Feature", "properties": { "VALUE": 1.0 }, "geometry": { "type": "Point", "coordinates": [ 1038238.5, 6869605.5 ] } },
{ "type": "Feature", "properties": { "VALUE": 1.0 }, "geometry": { "type": "Point", "coordinates": [ 1038243.5, 6869605.5 ] } },
{ "type": "Feature", "properties": { "VALUE": 1.0 }, "geometry": { "type": "Point", "coordinates": [ 1038248.5, 6869605.5 ] } },
{ "type": "Feature", "properties": { "VALUE": 1.0 }, "geometry": { "type": "Point", "coordinates": [ 1038253.5, 6869605.5 ] } },
{ "type": "Feature", "properties": { "VALUE": 1.0 }, "geometry": { "type": "Point", "coordinates": [ 1038258.5, 6869605.5 ] } },
{ "type": "Feature", "properties": { "VALUE": 1.0 }, "geometry": { "type": "Point", "coordinates": [ 1038263.5, 6869605.5 ] } },
{ "type": "Feature", "properties": { "VALUE": 1.0 }, "geometry": { "type": "Point", "coordinates": [ 1038268.5, 6869605.5 ] } },
{ "type": "Feature", "properties": { "VALUE": 1.0 }, "geometry": { "type": "Point", "coordinates": [ 1038273.5, 6869605.5 ] } },
{ "type": "Feature", "properties": { "VALUE": 1.0 }, "geometry": { "type": "Point", "coordinates": [ 1038278.5, 6869605.5 ] } },
{ "type": "Feature", "properties": { "VALUE": 1.0 }, "geometry": { "type": "Point", "coordinates": [ 1038283.5, 6869605.5 ] } },
{ "type": "Feature", "properties": { "VALUE": 1.0 }, "geometry": { "type": "Point", "coordinates": [ 1038288.5, 6869605.5 ] } },
{ "type": "Feature", "properties": { "VALUE": 1.0 }, "geometry": { "type": "Point", "coordinates": [ 1038293.5, 6869605.5 ] } },
{ "type": "Feature", "properties": { "VALUE": 1.0 }, "geometry": { "type": "Point", "coordinates": [ 1038298.5, 6869605.5 ] } },
{ "type": "Feature", "properties": { "VALUE": 1.0 }, "geometry": { "type": "Point", "coordinates": [ 1038303.5, 6869605.5 ] } },
{ "type": "Feature", "properties": { "VALUE": 1.0 }, "geometry": { "type": "Point", "coordinates": [ 1038308.5, 6869605.5 ] } },
{ "type": "Feature", "properties": { "VALUE": 1.0 }, "geometry": { "type": "Point", "coordinates": [ 1038313.5, 6869605.5 ] } },
{ "type": "Feature", "properties": { "VALUE": 1.0 }, "geometry": { "type": "Point", "coordinates": [ 1038318.5, 6869605.5 ] } },
{ "type": "Feature", "properties": { "VALUE": 1.0 }, "geometry": { "type": "Point", "coordinates": [ 1038323.5, 6869605.5 ] } },
{ "type": "Feature", "properties": { "VALUE": 1.0 }, "geometry": { "type": "Point", "coordinates": [ 1038328.5, 6869605.5 ] } },
{ "type": "Feature", "properties": { "VALUE": 1.0 }, "geometry": { "type": "Point", "coordinates": [ 1038333.5, 6869605.5 ] } },
{ "type": "Feature", "properties": { "VALUE": 1.0 }, "geometry": { "type": "Point", "coordinates": [ 1038338.5, 6869605.5 ] } },
{ "type": "Feature", "properties": { "VALUE": 1.0 }, "geometry": { "type": "Point", "coordinates": [ 1038343.5, 6869605.5 ] } },
{ "type": "Feature", "properties": { "VALUE": 1.0 }, "geometry": { "type": "Point", "coordinates": [ 1038348.5, 6869605.5 ] } },
{ "type": "Feature", "properties": { "VALUE": 1.0 }, "geometry": { "type": "Point", "coordinates": [ 1038353.5, 6869605.5 ] } },
{ "type": "Feature", "properties": { "VALUE": 1.0 }, "geometry": { "type": "Point", "coordinates": [ 1038358.5, 6869605.5 ] } },
{ "type": "Feature", "properties": { "VALUE": 1.0 }, "geometry": { "type": "Point", "coordinates": [ 1038363.5, 6869605.5 ] } },
{ "type": "Feature", "properties": { "VALUE": 1.0 }, "geometry": { "type": "Point", "coordinates": [ 1038368.5, 6869605.5 ] } },
{ "type": "Feature", "properties": { "VALUE": 1.0 }, "geometry": { "type": "Point", "coordinates": [ 1038373.5, 6869605.5 ] } },
{ "type": "Feature", "properties": { "VALUE": 1.0 }, "geometry": { "type": "Point", "coordinates": [ 1038378.5, 6869605.5 ] } },
{ "type": "Feature", "properties": { "VALUE": 1.0 }, "geometry": { "type": "Point", "coordinates": [ 1038383.5, 6869605.5 ] } },
{ "type": "Feature", "properties": { "VALUE": 1.0 }, "geometry": { "type": "Point", "coordinates": [ 1038388.5, 6869605.5 ] } },
{ "type": "Feature", "properties": { "VALUE": 1.0 }, "geometry": { "type": "Point", "coordinates": [ 1038393.5, 6869605.5 ] } },
{ "type": "Feature", "properties": { "VALUE": 1.0 }, "geometry": { "type": "Point", "coordinates": [ 1038398.5, 6869605.5 ] } },
{ "type": "Feature", "properties": { "VALUE": 1.0 }, "geometry": { "type": "Point", "coordinates": [ 1038403.5, 6869605.5 ] } },
{ "type": "Feature", "properties": { "VALUE": 1.0 }, "geometry": { "type": "Point", "coordinates": [ 1038408.5, 6869605.5 ] } },
{ "type": "Feature", "properties": { "VALUE": 1.0 }, "geometry": { "type": "Point", "coordinates": [ 1038413.5, 6869605.5 ] } },
{ "type": "Feature", "properties": { "VALUE": 1.0 }, "geometry": { "type": "Point", "coordinates": [ 1038418.5, 6869605.5 ] } },
{ "type": "Feature", "properties": { "VALUE": 1.0 }, "geometry": { "type": "Point", "coordinates": [ 1038423.5, 6869605.5 ] } },
{ "type": "Feature", "properties": { "VALUE": 1.0 }, "geometry": { "type": "Point", "coordinates": [ 1038428.5, 6869605.5 ] } },
{ "type": "Feature", "properties": { "VALUE": 1.0 }, "geometry": { "type": "Point", "coordinates": [ 1038433.5, 6869605.5 ] } },
{ "type": "Feature", "properties": { "VALUE": 1.0 }, "geometry": { "type": "Point", "coordinates": [ 1038438.5, 6869605.5 ] } },
{ "type": "Feature", "properties": { "VALUE": 1.0 }, "geometry": { "type": "Point", "coordinates": [ 1038443.5, 6869605.5 ] } },
{ "type": "Feature", "properties": { "VALUE": 1.0 }, "geometry": { "type": "Point", "coordinates": [ 1038448.5, 6869605.5 ] } },
{ "type": "Feature", "properties": { "VALUE": 1.0 }, "geometry": { "type": "Point", "coordinates": [ 1038453.5, 6869605.5 ] } },
{ "type": "Feature", "properties": { "VALUE": 1.0 }, "geometry": { "type": "Point", "coordinates": [ 1038458.5, 6869605.5 ] } },
{ "type": "Feature", "properties": { "VALUE": 1.0 }, "geometry": { "type": "Point", "coordinates": [ 1038463.5, 6869605.5 ] } },
{ "type": "Feature", "properties": { "VALUE": 1.0 }, "geometry": { "type": "Point", "coordinates": [ 1038468.5, 6869605.5 ] } },
{ "type": "Feature", "properties": { "VALUE": 1.0 }, "geometry": { "type": "Point", "coordinates": [ 1038473.5, 6869605.5 ] } },
{ "type": "Feature", "properties": { "VALUE": 1.0 }, "geometry": { "type": "Point", "coordinates": [ 1038478.5, 6869605.5 ] } },
{ "type": "Feature", "properties": { "VALUE": 1.0 }, "geometry": { "type": "Point", "coordinates": [ 1038483.5, 6869605.5 ] } },
{ "type": "Feature", "properties": { "VALUE": 1.0 }, "geometry": { "type": "Point", "coordinates": [ 1038488.5, 6869605.5 ] } },
{ "type": "Feature", "properties": { "VALUE": 1.0 }, "geometry": { "type": "Point", "coordinates": [ 1038493.5, 6869605.5 ] } },
{ "type": "Feature", "properties": { "VALUE": 1.0 }, "geometry": { "type": "Point", "coordinates": [ 1038498.5, 6869605.5 ] } },
{ "type": "Feature", "properties": { "VALUE": 1.0 }, "geometry": { "type": "Point", "coordinates": [ 1038503.5, 6869605.5 ] } },
{ "type": "Feature", "properties": { "VALUE": 1.0 }, "geometry": { "type": "Point", "coordinates": [ 1038508.5, 6869605.5 ] } },
{ "type": "Feature", "properties": { "VALUE": 1.0 }, "geometry": { "type": "Point", "coordinates": [ 1038513.5, 6869605.5 ] } },
{ "type": "Feature", "properties": { "VALUE": 1.0 }, "geometry": { "type": "Point", "coordinates": [ 1038518.5, 6869605.5 ] } },
{ "type": "Feature", "properties": { "VALUE": 1.0 }, "geometry": { "type": "Point", "coordinates": [ 1038523.5, 6869605.5 ] } },
{ "type": "Feature", "properties": { "VALUE": 1.0 }, "geometry": { "type": "Point", "coordinates": [ 1038528.5, 6869605.5 ] } },
{ "type": "Feature", "properties": { "VALUE": 1.0 }, "geometry": { "type": "Point", "coordinates": [ 1038533.5, 6869605.5 ] } },
{ "type": "Feature", "properties": { "VALUE": 1.0 }, "geometry": { "type": "Point", "coordinates": [ 1038538.5, 6869605.5 ] } },
{ "type": "Feature", "properties": { "VALUE": 1.0 }, "geometry": { "type": "Point", "coordinates": [ 1038543.5, 6869605.5 ] } },
{ "type": "Feature", "properties": { "VALUE": 1.0 }, "geometry": { "type": "Point", "coordinates": [ 1038548.5, 6869605.5 ] } },
{ "type": "Feature", "properties": { "VALUE": 1.0 }, "geometry": { "type": "Point", "coordinates": [ 1038553.5, 6869605.5 ] } },
{ "type": "Feature", "properties": { "VALUE": 1.0 }, "geometry": { "type": "Point", "coordinates": [ 1038558.5, 6869605.5 ] } },
{ "type": "Feature", "properties": { "VALUE": 1.0 }, "geometry": { "type": "Point", "coordinates": [ 1038563.5, 6869605.5 ] } },
{ "type": "Feature", "properties": { "VALUE": 1.0 }, "geometry": { "type": "Point", "coordinates": [ 1038568.5, 6869605.5 ] } },
{ "type": "Feature", "properties": { "VALUE": 1.0 }, "geometry": { "type": "Point", "coordinates": [ 1038573.5, 6869605.5 ] } },
{ "type": "Feature", "properties": { "VALUE": 1.0 }, "geometry": { "type": "Point", "coordinates": [ 1038578.5, 6869605.5 ] } },
{ "type": "Feature", "properties": { "VALUE": 1.0 }, "geometry": { "type": "Point", "coordinates": [ 1038583.5, 6869605.5 ] } },
{ "type": "Feature", "properties": { "VALUE": 1.0 }, "geometry": { "type": "Point", "coordinates": [ 1038588.5, 6869605.5 ] } },
{ "type": "Feature", "properties": { "VALUE": 1.0 }, "geometry": { "type": "Point", "coordinates": [ 1038593.5, 6869605.5 ] } },
{ "type": "Feature", "properties": { "VALUE": 1.0 }, "geometry": { "type": "Point", "coordinates": [ 1038598.5, 6869605.5 ] } },
{ "type": "Feature", "properties": { "VALUE": 1.0 }, "geometry": { "type": "Point", "coordinates": [ 1038603.5, 6869605.5 ] } },
{ "type": "Feature", "properties": { "VALUE": 1.0 }, "geometry": { "type": "Point", "coordinates": [ 1038608.5, 6869605.5 ] } },
{ "type": "Feature", "properties": { "VALUE": 1.0 }, "geometry": { "type": "Point", "coordinates": [ 1038613.5, 6869605.5 ] } },
{ "type": "Feature", "properties": { "VALUE": 1.0 }, "geometry": { "type": "Point", "coordinates": [ 1038618.5, 6869605.5 ] } },
{ "type": "Feature", "properties": { "VALUE": 1.0 }, "geometry": { "type": "Point", "coordinates": [ 1038623.5, 6869605.5 ] } },
{ "type": "Feature", "properties": { "VALUE": 1.0 }, "geometry": { "type": "Point", "coordinates": [ 1038628.5, 6869605.5 ] } },
{ "type": "Feature", "properties": { "VALUE": 1.0 }, "geometry": { "type": "Point", "coordinates": [ 1038633.5, 6869605.5 ] } },
{ "type": "Feature", "properties": { "VALUE": 1.0 }, "geometry": { "type": "Point", "coordinates": [ 1038638.5, 6869605.5 ] } },
{ "type": "Feature", "properties": { "VALUE": 1.0 }, "geometry": { "type": "Point", "coordinates": [ 1038643.5, 6869605.5 ] } },
{ "type": "Feature", "properties": { "VALUE": 1.0 }, "geometry": { "type": "Point", "coordinates": [ 1038648.5, 6869605.5 ] } },
{ "type": "Feature", "properties": { "VALUE": 1.0 }, "geometry": { "type": "Point", "coordinates": [ 1038653.5, 6869605.5 ] } },
{ "type": "Feature", "properties": { "VALUE": 1.0 }, "geometry": { "type": "Point", "coordinates": [ 1038658.5, 6869605.5 ] } },
{ "type": "Feature", "properties": { "VALUE": 1.0 }, "geometry": { "type": "Point", "coordinates": [ 1038663.5, 6869605.5 ] } },
{ "type": "Feature", "properties": { "VALUE": 1.0 }, "geometry": { "type": "Point", "coordinates": [ 1038668.5, 6869605.5 ] } },
{ "type": "Feature", "properties": { "VALUE": 1.0 }, "geometry": { "type": "Point", "coordinates": [ 1038673.5, 6869605.5 ] } },
{ "type": "Feature", "properties": { "VALUE": 1.0 }, "geometry": { "type": "Point", "coordinates": [ 1038678.5, 6869605.5 ] } },
{ "type": "Feature", "properties": { "VALUE": 1.0 }, "geometry": { "type": "Point", "coordinates": [ 1038683.5, 6869605.5 ] } },
{ "type": "Feature", "properties": { "VALUE": 1.0 }, "geometry": { "type": "Point", "coordinates": [ 1038688.5, 6869605.5 ] } },
{ "type": "Feature", "properties": { "VALUE": 1.0 }, "geometry": { "type": "Point", "coordinates": [ 1038693.5, 6869605.5 ] } },
{ "type": "Feature", "properties": { "VALUE": 1.0 }, "geometry": { "type": "Point", "coordinates": [ 1038698.5, 6869605.5 ] } },
{ "type": "Feature", "properties": { "VALUE": 1.0 }, "geometry": { "type": "Point", "coordinates": [ 1038703.5, 6869605.5 ] } },
{ "type": "Feature", "properties": { "VALUE": 1.0 }, "geometry": { "type": "Point", "coordinates": [ 1038708.5, 6869605.5 ] } },
{ "type": "Feature", "properties": { "VALUE": 1.0 }, "geometry": { "type": "Point", "coordinates": [ 1038713.5, 6869605.5 ] } },
{ "type": "Feature", "properties": { "VALUE": 1.0 }, "geometry": { "type": "Point", "coordinates": [ 1038718.5, 6869605.5 ] } },
{ "type": "Feature", "properties": { "VALUE": 1.0 }, "geometry": { "type": "Point", "coordinates": [ 1038723.5, 6869605.5 ] } },
{ "type": "Feature", "properties": { "VALUE": 1.0 }, "geometry": { "type": "Point", "coordinates": [ 1038728.5, 6869605.5 ] } },
{ "type": "Feature", "properties": { "VALUE": 1.0 }, "geometry": { "type": "Point", "coordinates": [ 1038733.5, 6869605.5 ] } },
{ "type": "Feature", "properties": { "VALUE": 1.0 }, "geometry": { "type": "Point", "coordinates": [ 1038738.5, 6869605.5 ] } },
{ "type": "Feature", "properties": { "VALUE": 1.0 }, "geometry": { "type": "Point", "coordinates": [ 1038743.5, 6869605.5 ] } },
{ "type": "Feature", "properties": { "VALUE": 1.0 }, "geometry": { "type": "Point", "coordinates": [ 1038748.5, 6869605.5 ] } },
{ "type": "Feature", "properties": { "VALUE": 1.0 }, "geometry": { "type": "Point", "coordinates": [ 1038753.5, 6869605.5 ] } },
{ "type": "Feature", "properties": { "VALUE": 1.0 }, "geometry": { "type": "Point", "coordinates": [ 1038758.5, 6869605.5 ] } },
{ "type": "Feature", "properties": { "VALUE": 1.0 }, "geometry": { "type": "Point", "coordinates": [ 1038763.5, 6869605.5 ] } },
{ "type": "Feature", "properties": { "VALUE": 1.0 }, "geometry": { "type": "Point", "coordinates": [ 1038768.5, 6869605.5 ] } },
{ "type": "Feature", "properties": { "VALUE": 1.0 }, "geometry": { "type": "Point", "coordinates": [ 1038773.5, 6869605.5 ] } },
{ "type": "Feature", "properties": { "VALUE": 1.0 }, "geometry": { "type": "Point", "coordinates": [ 1038778.5, 6869605.5 ] } },
{ "type": "Feature", "properties": { "VALUE": 1.0 }, "geometry": { "type": "Point", "coordinates": [ 1038783.5, 6869605.5 ] } },
{ "type": "Feature", "properties": { "VALUE": 1.0 }, "geometry": { "type": "Point", "coordinates": [ 1038788.5, 6869605.5 ] } },
{ "type": "Feature", "properties": { "VALUE": 1.0 }, "geometry": { "type": "Point", "coordinates": [ 1038793.5, 6869605.5 ] } },
{ "type": "Feature", "properties": { "VALUE": 1.0 }, "geometry": { "type": "Point", "coordinates": [ 1038798.5, 6869605.5 ] } },
{ "type": "Feature", "properties": { "VALUE": 1.0 }, "geometry": { "type": "Point", "coordinates": [ 1038803.5, 6869605.5 ] } },
{ "type": "Feature", "properties": { "VALUE": 1.0 }, "geometry": { "type": "Point", "coordinates": [ 1038808.5, 6869605.5 ] } },
{ "type": "Feature", "properties": { "VALUE": 1.0 }, "geometry": { "type": "Point", "coordinates": [ 1038813.5, 6869605.5 ] } },
{ "type": "Feature", "properties": { "VALUE": 1.0 }, "geometry": { "type": "Point", "coordinates": [ 1038818.5, 6869605.5 ] } },
{ "type": "Feature", "properties": { "VALUE": 1.0 }, "geometry": { "type": "Point", "coordinates": [ 1038823.5, 6869605.5 ] } },
{ "type": "Feature", "properties": { "VALUE": 1.0 }, "geometry": { "type": "Point", "coordinates": [ 1038828.5, 6869605.5 ] } },
{ "type": "Feature", "properties": { "VALUE": 1.0 }, "geometry": { "type": "Point", "coordinates": [ 1038833.5, 6869605.5 ] } },
{ "type": "Feature", "properties": { "VALUE": 1.0 }, "geometry": { "type": "Point", "coordinates": [ 1038838.5, 6869605.5 ] } },
{ "type": "Feature", "properties": { "VALUE": 1.0 }, "geometry": { "type": "Point", "coordinates": [ 1038843.5, 6869605.5 ] } },
{ "type": "Feature", "properties": { "VALUE": 1.0 }, "geometry": { "type": "Point", "coordinates": [ 1038848.5, 6869605.5 ] } },
{ "type": "Feature", "properties": { "VALUE": 1.0 }, "geometry": { "type": "Point", "coordinates": [ 1038853.5, 6869605.5 ] } }
]
}
